{
  "norad_id": 44528,
  "name": "ZY-1 02D",
  "history": [
    {
      "epoch": "2026-03-28T21:49:19.853184Z",
      "apogee_km": 774.9283207954732,
      "perigee_km": 772.1666263191637,
      "latitude_deg": 5.626757057658188e-05,
      "longitude_deg": -1.446270867969526,
      "height_km": 775.5169224439603,
      "semi_major_axis_km": 7151.684473557318,
      "eccentricity": 0.00019308,
      "inclination_deg": 98.3269,
      "raan_deg": 152.2094,
      "arg_perigee_deg": 45.0329,
      "mean_anomaly_deg": 315.1014,
      "mean_motion_rev_day": 14.35457186
    },
    {
      "epoch": "2026-03-29T04:30:49.692960Z",
      "apogee_km": 774.9054664108944,
      "perigee_km": 772.1878266252179,
      "latitude_deg": -1.7921639761088036e-05,
      "longitude_deg": -101.82600756396891,
      "height_km": 775.520868676651,
      "semi_major_axis_km": 7151.683646518056,
      "eccentricity": 0.00019,
      "inclination_deg": 98.3269,
      "raan_deg": 152.4788,
      "arg_perigee_deg": 44.3815,
      "mean_anomaly_deg": 315.7523,
      "mean_motion_rev_day": 14.35457435
    },
    {
      "epoch": "2026-03-30T03:56:04.193952Z",
      "apogee_km": 774.8588352241786,
      "perigee_km": 772.232737305063,
      "latitude_deg": 2.8100744851247414e-05,
      "longitude_deg": -93.15628821625282,
      "height_km": 775.5214038869872,
      "semi_major_axis_km": 7151.6827862646205,
      "eccentricity": 0.0001836,
      "inclination_deg": 98.3269,
      "raan_deg": 153.4208,
      "arg_perigee_deg": 42.3826,
      "mean_anomaly_deg": 317.7502,
      "mean_motion_rev_day": 14.35457694
    }
  ]
}